STARLINK-31571          
1 59362U 24060Q   26068.57853069  .00000108  00000+0  13427-4 0  9991
2 59362  42.9986 260.6673 0000723 274.3865  85.6904 15.27572637110045
2025-155V               
1 64895U 25155V   26068.85787115  .00013705  00000+0  51002-3 0  9990
2 64895  97.4485  37.2490 0008035 152.8264 207.3397 15.27583301 65579
